FLOCK 4BE-17            
1 60492U 24149AA  26192.71500300  .00009349  00000+0  23253-3 0  9999
2 60492  97.3773 276.2883 0004145 155.3826 204.7619 15.40497548106035
FLOCK 4BE-22            
1 60494U 24149AC  26192.80414380  .00009725  00000+0  23075-3 0  9993
2 60494  97.3734 276.6096 0004478 163.9303 196.2087 15.41913954106093
FLOCK 4BE-34            
1 60495U 24149AD  26193.53550833  .00010320  00000+0  24489-3 0  9992
2 60495  97.3780 278.1859 0004609 168.0890 192.0467 15.41894751106237
FLOCK 4BE-32            
1 60497U 24149AF  26192.77331231  .00011644  00000+0  26600-3 0  9995
2 60497  97.3718 276.9792 0004597 167.9865 192.1493 15.43005273106121
FLOCK 4BE-11            
1 60501U 24149AK  26191.19944043  .00014279  00000+0  31750-3 0  9996
2 60501  97.3696 275.6385 0004566 172.5870 187.5446 15.43759592105901
FLOCK 4BE-24            
1 60505U 24149AP  26190.53571544  .00015684  00000+0  34635-3 0  9995
2 60505  97.3710 275.2320 0004496 186.8328 173.2860 15.43944372105819
FLOCK 4BE-29            
1 60509U 24149AT  26192.79792032  .00027166  00000+0  57137-3 0  9996
2 60509  97.3808 279.0564 0003046 182.4298 177.6937 15.45278458106216
FLOCK 4BE-2             
1 60511U 24149AV  26193.04148874  .00044830  00000+0  65247-3 0  9995
2 60511  97.3833 281.0962 0005144 180.9826 179.1420 15.55608654106369
FLOCK 4BE-13            
1 60512U 24149AW  26192.81184954  .00008636  00000+0  20085-3 0  9994
2 60512  97.3718 277.4895 0004867 165.8986 194.2398 15.42552459106163
FLOCK 4BE-27            
1 60513U 24149AX  26193.03684580  .00005918  00000+0  17735-3 0  9998
2 60513  97.3826 274.9056 0003660 192.0396 168.0760 15.34880048105959
FLOCK 4BE-9             
1 60514U 24149AY  26193.02259133  .00009547  00000+0  22950-3 0  9997
2 60514  97.3794 277.5460 0003423 179.1040 181.0214 15.41530797106143
FLOCK 4BE-6             
1 60516U 24149BA  26192.81158669  .00008429  00000+0  21159-3 0  9995
2 60516  97.3792 276.6440 0003932 183.6952 176.4265 15.40253020106063
FLOCK 4BE-14            
1 60517U 24149BB  26192.77186722  .00010809  00000+0  25734-3 0  9990
2 60517  97.3697 276.7638 0004965 187.9835 172.1334 15.41779712106110
FLOCK 4BE-1             
1 60518U 24149BC  26193.53988916  .00012138  00000+0  27309-3 0  9998
2 60518  97.3783 278.9083 0004748 183.5828 176.5386 15.43448592106282
FLOCK 4BE-28            
1 60519U 24149BD  26192.73831652  .00027248  00000+0  55740-3 0  9992
2 60519  97.3750 278.8988 0004656 185.3336 174.7865 15.46087448106231
FLOCK 4BE-5             
1 60559U 24149CV  26192.77347981  .00009232  00000+0  22613-3 0  9993
2 60559  97.3847 277.0205 0003687 181.8015 178.3219 15.40972056106069
